[{"OBJECT_NAME":"STARLINK-4271","OBJECT_ID":"2022-076AC","EPOCH":"2026-03-09T10:48:16.399584","MEAN_MOTION":15.08834466,"ECCENTRICITY":0.00013299,"INCLINATION":53.2164,"RA_OF_ASC_NODE":95.1951,"ARG_OF_PERICENTER":93.3495,"MEAN_ANOMALY":266.7649,"EPHEMERIS_TYPE":0,"CLASSIFICATION_TYPE":"U","NORAD_CAT_ID":53012,"ELEMENT_SET_NO":999,"REV_AT_EPOCH":20281,"BSTAR":-1.765959e-5,"MEAN_MOTION_DOT":-5.69e-6,"MEAN_MOTION_DDOT":0},{"OBJECT_NAME":"PEGASUS DEB","OBJECT_ID":"1994-029AFV","EPOCH":"2026-03-07T18:19:12.614880","MEAN_MOTION":14.92266405,"ECCENTRICITY":0.0107713,"INCLINATION":81.5817,"RA_OF_ASC_NODE":82.8303,"ARG_OF_PERICENTER":304.7008,"MEAN_ANOMALY":54.4096,"EPHEMERIS_TYPE":0,"CLASSIFICATION_TYPE":"U","NORAD_CAT_ID":39922,"ELEMENT_SET_NO":999,"REV_AT_EPOCH":62967,"BSTAR":0.0012051888,"MEAN_MOTION_DOT":0.00013798,"MEAN_MOTION_DDOT":0}]
